[{"OBJECT_NAME":"OBJECT K","OBJECT_ID":"2024-092K","EPOCH":"2026-03-09T22:27:09.905184","MEAN_MOTION":15.32834875,"ECCENTRICITY":0.00087198,"INCLINATION":97.6413,"RA_OF_ASC_NODE":198.1023,"ARG_OF_PERICENTER":142.4952,"MEAN_ANOMALY":217.69,"EPHEMERIS_TYPE":0,"CLASSIFICATION_TYPE":"U","NORAD_CAT_ID":59809,"ELEMENT_SET_NO":999,"REV_AT_EPOCH":10001,"BSTAR":0.0007267688,"MEAN_MOTION_DOT":0.00023035,"MEAN_MOTION_DDOT":0},{"OBJECT_NAME":"STARLINK-34659","OBJECT_ID":"2025-157K","EPOCH":"2026-03-09T22:36:03.121056","MEAN_MOTION":15.30243017,"ECCENTRICITY":0.00020942,"INCLINATION":53.1591,"RA_OF_ASC_NODE":344.4129,"ARG_OF_PERICENTER":162.6927,"MEAN_ANOMALY":197.4145,"EPHEMERIS_TYPE":0,"CLASSIFICATION_TYPE":"U","NORAD_CAT_ID":64913,"ELEMENT_SET_NO":999,"REV_AT_EPOCH":3611,"BSTAR":0.0023073247,"MEAN_MOTION_DOT":0.00068704,"MEAN_MOTION_DDOT":0}]
